CCSDS_OMM_VERS = 2.0
CREATION_DATE  = 
ORIGINATOR     = 

OBJECT_NAME    = SHIYAN-31
OBJECT_ID      = 2025-227A
CENTER_NAME    = EARTH
REF_FRAME      = TEME
TIME_SYSTEM    = UTC
MEAN_ELEMENT_THEORY = SGP/SGP4

EPOCH          = 2025-11-12T06:36:48.994848
MEAN_MOTION    = 15.20637257
ECCENTRICITY   = .00115356
INCLINATION    = 80.0048
RA_OF_ASC_NODE = 62.4213
ARG_OF_PERICENTER = 171.3058
MEAN_ANOMALY   = 188.8371

EPHEMERIS_TYPE = 0
CLASSIFICATION_TYPE = U
NORAD_CAT_ID   = 65945
ELEMENT_SET_NO = 999
REV_AT_EPOCH   = 454
BSTAR          = .10871421E-2
MEAN_MOTION_DOT = .23963E-3
MEAN_MOTION_DDOT = 0

CCSDS_OMM_VERS = 2.0
CREATION_DATE  = 
ORIGINATOR     = 

OBJECT_NAME    = CZ-2D R/B
OBJECT_ID      = 2025-227B
CENTER_NAME    = EARTH
REF_FRAME      = TEME
TIME_SYSTEM    = UTC
MEAN_ELEMENT_THEORY = SGP/SGP4

EPOCH          = 2025-11-12T06:27:34.457184
MEAN_MOTION    = 15.27727275
ECCENTRICITY   = .00211782
INCLINATION    = 80.1556
RA_OF_ASC_NODE = 62.7808
ARG_OF_PERICENTER = 296.6769
MEAN_ANOMALY   = 63.2294

EPHEMERIS_TYPE = 0
CLASSIFICATION_TYPE = U
NORAD_CAT_ID   = 65946
ELEMENT_SET_NO = 999
REV_AT_EPOCH   = 456
BSTAR          = .86634895E-3
MEAN_MOTION_DOT = .23687E-3
MEAN_MOTION_DDOT = 0

CCSDS_OMM_VERS = 2.0
CREATION_DATE  = 
ORIGINATOR     = 

OBJECT_NAME    = KUIPER-00101
OBJECT_ID      = 2025-228A
CENTER_NAME    = EARTH
REF_FRAME      = TEME
TIME_SYSTEM    = UTC
MEAN_ELEMENT_THEORY = SGP/SGP4

EPOCH          = 2025-11-12T06:00:02.999808
MEAN_MOTION    = 15.28524118
ECCENTRICITY   = .0005343
INCLINATION    = 51.8812
RA_OF_ASC_NODE = 167.6395
ARG_OF_PERICENTER = 233.7964
MEAN_ANOMALY   = 41.8226

EPHEMERIS_TYPE = 0
CLASSIFICATION_TYPE = U
NORAD_CAT_ID   = 65947
ELEMENT_SET_NO = 999
REV_AT_EPOCH   = 541
BSTAR          = -.15693845E-1
MEAN_MOTION_DOT = -.418524E-2
MEAN_MOTION_DDOT = 0

CCSDS_OMM_VERS = 2.0
CREATION_DATE  = 
ORIGINATOR     = 

OBJECT_NAME    = KUIPER-00113
OBJECT_ID      = 2025-228B
CENTER_NAME    = EARTH
REF_FRAME      = TEME
TIME_SYSTEM    = UTC
MEAN_ELEMENT_THEORY = SGP/SGP4

EPOCH          = 2025-11-11T20:32:23.338752
MEAN_MOTION    = 15.35435253
ECCENTRICITY   = .0005984
INCLINATION    = 51.8802
RA_OF_ASC_NODE = 169.3092
ARG_OF_PERICENTER = 233.6634
MEAN_ANOMALY   = 126.3800

EPHEMERIS_TYPE = 0
CLASSIFICATION_TYPE = U
NORAD_CAT_ID   = 65948
ELEMENT_SET_NO = 999
REV_AT_EPOCH   = 567
BSTAR          = .13020182E-2
MEAN_MOTION_DOT = .45424E-3
MEAN_MOTION_DDOT = 0

CCSDS_OMM_VERS = 2.0
CREATION_DATE  = 
ORIGINATOR     = 

OBJECT_NAME    = KUIPER-00117
OBJECT_ID      = 2025-228C
CENTER_NAME    = EARTH
REF_FRAME      = TEME
TIME_SYSTEM    = UTC
MEAN_ELEMENT_THEORY = SGP/SGP4

EPOCH          = 2025-11-12T06:00:02.999808
MEAN_MOTION    = 15.33327681
ECCENTRICITY   = .0006978
INCLINATION    = 51.8798
RA_OF_ASC_NODE = 167.4290
ARG_OF_PERICENTER = 241.5380
MEAN_ANOMALY   = 125.7816

EPHEMERIS_TYPE = 0
CLASSIFICATION_TYPE = U
NORAD_CAT_ID   = 65949
ELEMENT_SET_NO = 999
REV_AT_EPOCH   = 515
BSTAR          = .12007536E-2
MEAN_MOTION_DOT = .39108E-3
MEAN_MOTION_DDOT = 0

CCSDS_OMM_VERS = 2.0
CREATION_DATE  = 
ORIGINATOR     = 

OBJECT_NAME    = KUIPER-00121
OBJECT_ID      = 2025-228D
CENTER_NAME    = EARTH
REF_FRAME      = TEME
TIME_SYSTEM    = UTC
MEAN_ELEMENT_THEORY = SGP/SGP4

EPOCH          = 2025-11-11T23:57:27.010656
MEAN_MOTION    = 15.34749912
ECCENTRICITY   = .0005673
INCLINATION    = 51.8814
RA_OF_ASC_NODE = 168.7640
ARG_OF_PERICENTER = 253.8596
MEAN_ANOMALY   = 106.1766

EPHEMERIS_TYPE = 0
CLASSIFICATION_TYPE = U
NORAD_CAT_ID   = 65950
ELEMENT_SET_NO = 999
REV_AT_EPOCH   = 569
BSTAR          = .11666175E-2
MEAN_MOTION_DOT = .39743E-3
MEAN_MOTION_DDOT = 0

CCSDS_OMM_VERS = 2.0
CREATION_DATE  = 
ORIGINATOR     = 

OBJECT_NAME    = KUIPER-00122
OBJECT_ID      = 2025-228E
CENTER_NAME    = EARTH
REF_FRAME      = TEME
TIME_SYSTEM    = UTC
MEAN_ELEMENT_THEORY = SGP/SGP4

EPOCH          = 2025-11-12T06:00:02.999808
MEAN_MOTION    = 15.23380406
ECCENTRICITY   = .00066378
INCLINATION    = 51.8822
RA_OF_ASC_NODE = 168.0801
ARG_OF_PERICENTER = 271.8508
MEAN_ANOMALY   = 157.0594

EPHEMERIS_TYPE = 0
CLASSIFICATION_TYPE = U
NORAD_CAT_ID   = 65951
ELEMENT_SET_NO = 999
REV_AT_EPOCH   = 435
BSTAR          = -.64523475E-1
MEAN_MOTION_DOT = -.141064E-1
MEAN_MOTION_DDOT = 0

CCSDS_OMM_VERS = 2.0
CREATION_DATE  = 
ORIGINATOR     = 

OBJECT_NAME    = KUIPER-00123
OBJECT_ID      = 2025-228F
CENTER_NAME    = EARTH
REF_FRAME      = TEME
TIME_SYSTEM    = UTC
MEAN_ELEMENT_THEORY = SGP/SGP4

EPOCH          = 2025-11-12T06:00:02.999808
MEAN_MOTION    = 15.22150658
ECCENTRICITY   = .00061459
INCLINATION    = 51.8839
RA_OF_ASC_NODE = 168.0993
ARG_OF_PERICENTER = 255.9761
MEAN_ANOMALY   = 123.5779

EPHEMERIS_TYPE = 0
CLASSIFICATION_TYPE = U
NORAD_CAT_ID   = 65952
ELEMENT_SET_NO = 999
REV_AT_EPOCH   = 265
BSTAR          = -.28521172E-1
MEAN_MOTION_DOT = -.618524E-2
MEAN_MOTION_DDOT = 0

CCSDS_OMM_VERS = 2.0
CREATION_DATE  = 
ORIGINATOR     = 

OBJECT_NAME    = KUIPER-00124
OBJECT_ID      = 2025-228G
CENTER_NAME    = EARTH
REF_FRAME      = TEME
TIME_SYSTEM    = UTC
MEAN_ELEMENT_THEORY = SGP/SGP4

EPOCH          = 2025-11-12T00:02:06.596736
MEAN_MOTION    = 15.34509958
ECCENTRICITY   = .00069555
INCLINATION    = 51.8848
RA_OF_ASC_NODE = 168.7830
ARG_OF_PERICENTER = 267.2163
MEAN_ANOMALY   = 92.8027

EPHEMERIS_TYPE = 0
CLASSIFICATION_TYPE = U
NORAD_CAT_ID   = 65953
ELEMENT_SET_NO = 999
REV_AT_EPOCH   = 569
BSTAR          = .11048231E-2
MEAN_MOTION_DOT = .37326E-3
MEAN_MOTION_DDOT = 0

CCSDS_OMM_VERS = 2.0
CREATION_DATE  = 
ORIGINATOR     = 

OBJECT_NAME    = KUIPER-00125
OBJECT_ID      = 2025-228H
CENTER_NAME    = EARTH
REF_FRAME      = TEME
TIME_SYSTEM    = UTC
MEAN_ELEMENT_THEORY = SGP/SGP4

EPOCH          = 2025-11-11T23:50:37.593888
MEAN_MOTION    = 15.35064434
ECCENTRICITY   = .00058237
INCLINATION    = 51.8796
RA_OF_ASC_NODE = 168.7250
ARG_OF_PERICENTER = 245.3468
MEAN_ANOMALY   = 114.6912

EPHEMERIS_TYPE = 0
CLASSIFICATION_TYPE = U
NORAD_CAT_ID   = 65954
ELEMENT_SET_NO = 999
REV_AT_EPOCH   = 569
BSTAR          = .15458036E-2
MEAN_MOTION_DOT = .53417E-3
MEAN_MOTION_DDOT = 0

CCSDS_OMM_VERS = 2.0
CREATION_DATE  = 
ORIGINATOR     = 

OBJECT_NAME    = KUIPER-00126
OBJECT_ID      = 2025-228J
CENTER_NAME    = EARTH
REF_FRAME      = TEME
TIME_SYSTEM    = UTC
MEAN_ELEMENT_THEORY = SGP/SGP4

EPOCH          = 2025-11-12T06:00:02.999808
MEAN_MOTION    = 15.28003091
ECCENTRICITY   = .00057139
INCLINATION    = 51.8793
RA_OF_ASC_NODE = 167.7117
ARG_OF_PERICENTER = 277.4209
MEAN_ANOMALY   = 302.7347

EPHEMERIS_TYPE = 0
CLASSIFICATION_TYPE = U
NORAD_CAT_ID   = 65955
ELEMENT_SET_NO = 999
REV_AT_EPOCH   = 515
BSTAR          = -.2637955E-2
MEAN_MOTION_DOT = -.72775E-3
MEAN_MOTION_DDOT = 0

CCSDS_OMM_VERS = 2.0
CREATION_DATE  = 
ORIGINATOR     = 

OBJECT_NAME    = KUIPER-00127
OBJECT_ID      = 2025-228K
CENTER_NAME    = EARTH
REF_FRAME      = TEME
TIME_SYSTEM    = UTC
MEAN_ELEMENT_THEORY = SGP/SGP4

EPOCH          = 2025-11-12T04:23:21.456672
MEAN_MOTION    = 15.34712016
ECCENTRICITY   = .0003925
INCLINATION    = 51.8823
RA_OF_ASC_NODE = 167.7517
ARG_OF_PERICENTER = 271.2167
MEAN_ANOMALY   = 88.8369

EPHEMERIS_TYPE = 0
CLASSIFICATION_TYPE = U
NORAD_CAT_ID   = 65956
ELEMENT_SET_NO = 999
REV_AT_EPOCH   = 572
BSTAR          = -.29030362E-2
MEAN_MOTION_DOT = -.98285E-3
MEAN_MOTION_DDOT = 0

