SHIYAN-31               
1 65945U 25227A   25316.27556707  .00023963  00000+0  10871-2 0  9994
2 65945  80.0048  62.4213 0011535 171.3058 188.8371 15.20637257  4546
CZ-2D R/B               
1 65946U 25227B   25316.26914881  .00023687  00000+0  86635-3 0  9990
2 65946  80.1556  62.7808 0021178 296.6769  63.2294 15.27727275  4568
KUIPER-00101            
1 65947U 25228A   25316.25003472 -.00418524  00000+0 -15694-1 0  9991
2 65947  51.8812 167.6395 0005343 233.7964  41.8226 15.28524118  5414
KUIPER-00113            
1 65948U 25228B   25315.85582568  .00045424  00000+0  13020-2 0  9990
2 65948  51.8802 169.3092 0005984 233.6634 126.3800 15.35435253  5675
KUIPER-00117            
1 65949U 25228C   25316.25003472  .00039108  00000+0  12008-2 0  9995
2 65949  51.8798 167.4290 0006978 241.5380 125.7816 15.33327681  5155
KUIPER-00121            
1 65950U 25228D   25315.99822929  .00039743  00000+0  11666-2 0  9997
2 65950  51.8814 168.7640 0005673 253.8596 106.1766 15.34749912  5697
KUIPER-00122            
1 65951U 25228E   25316.25003472 -.01410640  00000+0 -64523-1 0  9993
2 65951  51.8822 168.0801 0006637 271.8508 157.0594 15.23380406  4356
KUIPER-00123            
1 65952U 25228F   25316.25003472 -.00618524  00000+0 -28521-1 0  9992
2 65952  51.8839 168.0993 0006145 255.9761 123.5779 15.22150658  2652
KUIPER-00124            
1 65953U 25228G   25316.00146524  .00037326  00000+0  11048-2 0  9992
2 65953  51.8848 168.7830 0006955 267.2163  92.8027 15.34509958  5696
KUIPER-00125            
1 65954U 25228H   25315.99349067  .00053417  00000+0  15458-2 0  9995
2 65954  51.8796 168.7250 0005823 245.3468 114.6912 15.35064434  5695
KUIPER-00126            
1 65955U 25228J   25316.25003472 -.00072775  00000+0 -26380-2 0  9999
2 65955  51.8793 167.7117 0005713 277.4209 302.7347 15.28003091  5158
KUIPER-00127            
1 65956U 25228K   25316.18288723 -.00098285  00000+0 -29030-2 0  9995
2 65956  51.8823 167.7517 0003925 271.2167  88.8369 15.34712016  5725
